NORAD_CAT_ID,OBJECT_NAME,OBJECT_TYPE,EPOCH,MEAN_MOTION,ECCENTRICITY,INCLINATION,RA_OF_ASC_NODE,ARG_OF_PERICENTER,MEAN_ANOMALY,BSTAR,MEAN_MOTION_DOT,MEAN_MOTION_DDOT,TLE_LINE0,TLE_LINE1,TLE_LINE2,SEMIMAJOR_AXIS,PERIOD,APOGEE,PERIGEE,DECAYED
52468.0,STARLINK-3864,PAYLOAD,2024-06-24 17:29:17,15.08769708,0.0001773,53.2181,335.7035,93.1731,266.9464,0.001276,0.00020039,0.0,0 STARLINK-3864,1 52468U 22049T   24176.72867373  .00020039  00000-0  12760-2 0  9997,2 52468  53.2181 335.7035 0001773  93.1731 266.9464 15.08769708118362,6918.095,95.442,541.187,538.734,0.0
52468.0,STARLINK-3864,PAYLOAD,2024-06-25 14:09:16,15.08839389,0.000133,53.2176,331.8372,109.1263,250.9873,6.5113e-05,7.49e-06,0.0,0 STARLINK-3864,1 52468U 22049T   24177.58977314  .00000749  00000-0  65113-4 0  9997,2 52468  53.2176 331.8372 0001330 109.1263 250.9873 15.08839389118331,6917.882,95.438,540.667,538.827,0.0
52468.0,STARLINK-3864,PAYLOAD,2024-06-25 18:55:24,15.08856338,0.0001323,53.218,330.9452,78.4642,281.6498,0.00020875,3.037e-05,0.0,0 STARLINK-3864,1 52468U 22049T   24177.78847952  .00003037  00000-0  20875-3 0  9991,2 52468  53.2180 330.9452 0001323  78.4642 281.6498 15.08856338118524,6917.83,95.437,540.611,538.78,0.0
52468.0,STARLINK-3864,PAYLOAD,2024-06-26 02:52:21,15.08841704,0.0001894,53.218,329.4583,77.7114,282.409,8.065e-05,9.96e-06,0.0,0 STARLINK-3864,1 52468U 22049T   24178.11969334  .00000996  00000-0  80650-4 0  9997,2 52468  53.2180 329.4583 0001894  77.7114 282.4090 15.08841704118574,6917.875,95.437,541.05,538.43,0.0
52468.0,STARLINK-3864,PAYLOAD,2024-06-27 17:01:37,15.08836437,0.0001312,53.2169,322.325,77.1458,282.9681,0.00013593,1.876e-05,0.0,0 STARLINK-3864,1 52468U 22049T   24179.70945664  .00001876  00000-0  13593-3 0  9992,2 52468  53.2169 322.3250 0001312  77.1458 282.9681 15.08836437118819,6917.891,95.438,540.664,538.849,0.0
52468.0,STARLINK-3864,PAYLOAD,2024-06-28 02:33:55,15.08850455,0.0001155,53.2171,320.5406,94.3299,265.7826,-5.0954e-05,-1.099e-05,0.0,0 STARLINK-3864,1 52468U 22049T   24180.10689150 -.00001099  00000-0 -50954-4 0  9995,2 52468  53.2171 320.5406 0001155  94.3299 265.7826 15.08850455118876,6917.848,95.437,540.512,538.914,0.0
52468.0,STARLINK-3864,PAYLOAD,2024-06-28 13:41:37,15.08845051,0.000103,53.2155,318.4593,87.2784,272.8326,0.00022451,3.288e-05,0.0,0 STARLINK-3864,1 52468U 22049T   24180.57057256  .00003288  00000-0  22451-3 0  9992,2 52468  53.2155 318.4593 0001030  87.2784 272.8326 15.08845051118783,6917.865,95.437,540.442,539.017,0.0
52468.0,STARLINK-3864,PAYLOAD,2024-06-28 16:52:22,15.08867353,0.0001021,53.216,317.8616,99.3889,260.7218,0.00044123,6.746e-05,0.0,0 STARLINK-3864,1 52468U 22049T   24180.70304086  .00006746  00000-0  44123-3 0  9995,2 52468  53.2160 317.8616 0001021  99.3889 260.7218 15.08867353118963,6917.797,95.436,540.368,538.955,0.0
52468.0,STARLINK-3864,PAYLOAD,2024-06-29 02:24:42,15.08846729,0.0001344,53.2158,316.0774,73.5619,286.5521,0.00011933,1.612e-05,0.0,0 STARLINK-3864,1 52468U 22049T   24181.10049074  .00001612  00000-0  11933-3 0  9993,2 52468  53.2158 316.0774 0001344  73.5619 286.5521 15.08846729119024,6917.86,95.437,540.655,538.795,0.0
52468.0,STARLINK-3864,PAYLOAD,2024-06-29 13:32:24,15.08837936,0.000123,53.2151,313.9996,65.3405,294.7715,-6.1303e-06,-3.85e-06,0.0,0 STARLINK-3864,1 52468U 22049T   24181.56417526 -.00000385  00000-0 -61303-5 0  9990,2 52468  53.2151 313.9996 0001230  65.3405 294.7715 15.08837936119098,6917.887,95.438,540.603,538.901,0.0
52468.0,STARLINK-3864,PAYLOAD,2024-06-29 15:07:47,15.08838259,0.0001042,53.2145,313.7016,65.1583,294.9517,-8.5477e-07,-3.01e-06,0.0,0 STARLINK-3864,1 52468U 22049T   24181.63041462 -.00000301  00000-0 -85477-6 0  9997,2 52468  53.2145 313.7016 0001042  65.1583 294.9517 15.08838259118942,6917.886,95.438,540.472,539.03,0.0
52468.0,STARLINK-3864,PAYLOAD,2024-06-30 14:58:35,15.0883755,0.0001485,53.2158,309.2383,83.6004,276.5157,1.7642e-05,-7e-08,0.0,0 STARLINK-3864,1 52468U 22049T   24182.62401873 -.00000007  00000-0  17642-4 0  9992,2 52468  53.2158 309.2383 0001485  83.6004 276.5157 15.08837550119093,6917.888,95.438,540.78,538.726,0.0
52468.0,STARLINK-3864,PAYLOAD,2024-07-01 14:49:22,15.08842282,0.0001195,53.2162,304.7783,75.495,284.6175,0.00033257,5.009e-05,0.0,0 STARLINK-3864,1 52468U 22049T   24183.61762033  .00005009  00000-0  33257-3 0  9995,2 52468  53.2162 304.7783 0001195  75.4950 284.6175 15.08842282119244,6917.873,95.437,540.565,538.912,0.0
52468.0,STARLINK-3864,PAYLOAD,2024-07-02 13:04:46,15.08837237,0.0001361,53.2154,300.6145,76.6039,283.5104,0.00013722,1.896e-05,0.0,0 STARLINK-3864,1 52468U 22049T   24184.54498630  .00001896  00000-0  13722-3 0  9992,2 52468  53.2154 300.6145 0001361  76.6039 283.5104 15.08837237119545,6917.889,95.438,540.695,538.812,0.0
52468.0,STARLINK-3864,PAYLOAD,2024-07-03 14:30:57,15.08838964,0.0001168,53.2152,295.8575,74.4286,285.6835,5.9755e-05,6.63e-06,0.0,0 STARLINK-3864,1 52468U 22049T   24185.60482656  .00000663  00000-0  59755-4 0  9999,2 52468  53.2152 295.8575 0001168  74.4286 285.6835 15.08838964119700,6917.884,95.438,540.557,538.941,0.0
52468.0,STARLINK-3864,PAYLOAD,2024-07-04 14:21:43,15.08843745,0.0001284,53.2159,291.4001,102.4881,257.6255,0.00017981,2.575e-05,0.0,0 STARLINK-3864,1 52468U 22049T   24186.59842455  .00002575  00000-0  17981-3 0  9993,2 52468  53.2159 291.4001 0001284 102.4881 257.6255 15.08843745119691,6917.869,95.437,540.622,538.846,0.0
52468.0,STARLINK-3864,PAYLOAD,2024-07-05 12:37:07,15.08844262,0.0001249,53.2157,287.2381,102.4702,257.643,0.00018033,2.584e-05,0.0,0 STARLINK-3864,1 52468U 22049T   24187.52578387  .00002584  00000-0  18033-3 0  9996,2 52468  53.2157 287.2381 0001249 102.4702 257.6430 15.08844262119999,6917.867,95.437,540.596,538.868,0.0
52468.0,STARLINK-3864,PAYLOAD,2024-07-06 12:27:55,15.08837334,0.0001134,53.2146,282.7753,87.448,272.6642,-1.3411e-05,-5.01e-06,0.0,0 STARLINK-3864,1 52468U 22049T   24188.51939122 -.00000501  00000-0 -13411-4 0  9999,2 52468  53.2146 282.7753 0001134  87.4480 272.6642 15.08837334120141,6917.889,95.438,540.538,538.969,0.0
52468.0,STARLINK-3864,PAYLOAD,2024-07-06 14:03:18,15.08841454,0.0001199,53.2157,282.4779,86.76,273.3529,7.8743e-06,-1.63e-06,0.0,0 STARLINK-3864,1 52468U 22049T   24188.58562810 -.00000163  00000-0  78743-5 0  9995,2 52468  53.2157 282.4779 0001199  86.7600 273.3529 15.08841454119996,6917.876,95.437,540.57,538.911,0.0
52468.0,STARLINK-3864,PAYLOAD,2024-07-07 10:43:18,15.0884443,0.0001227,53.2161,278.6132,87.7269,272.3863,1.4094e-05,-6.4e-07,0.0,0 STARLINK-3864,1 52468U 22049T   24189.44674672 -.00000064  00000-0  14094-4 0  9999,2 52468  53.2161 278.6132 0001227  87.7269 272.3863 15.08844430120286,6917.867,95.437,540.581,538.883,0.0
52468.0,STARLINK-3864,PAYLOAD,2024-07-08 12:09:29,15.08841138,0.0001305,53.2157,273.8545,81.9512,278.1628,9.8285e-05,1.277e-05,0.0,0 STARLINK-3864,1 52468U 22049T   24190.50658742  .00001277  00000-0  98285-4 0  9998,2 52468  53.2157 273.8545 0001305  81.9512 278.1628 15.08841138120443,6917.877,95.437,540.645,538.839,0.0
52468.0,STARLINK-3864,PAYLOAD,2024-07-09 12:00:15,15.08845034,0.0001258,53.2158,269.3915,83.7397,276.3738,5.5677e-05,5.98e-06,0.0,0 STARLINK-3864,1 52468U 22049T   24191.50018462  .00000598  00000-0  55677-4 0  9991,2 52468  53.2158 269.3915 0001258  83.7397 276.3738 15.08845034120433,6917.865,95.437,540.6,538.86,0.0
52468.0,STARLINK-3864,PAYLOAD,2024-07-10 11:51:03,15.08838643,0.0001209,53.2154,264.9306,79.0427,281.0701,8.8612e-06,-1.47e-06,0.0,0 STARLINK-3864,1 52468U 22049T   24192.49379146 -.00000147  00000-0  88612-5 0  9996,2 52468  53.2154 264.9306 0001209  79.0427 281.0701 15.08838643120747,6917.885,95.438,540.586,538.913,0.0
52468.0,STARLINK-3864,PAYLOAD,2024-07-11 10:06:27,15.0884432,0.0001183,53.2152,260.7674,78.1265,281.986,4.8743e-05,4.88e-06,0.0,0 STARLINK-3864,1 52468U 22049T   24193.42114839  .00000488  00000-0  48743-4 0  9993,2 52468  53.2152 260.7674 0001183  78.1265 281.9860 15.08844320120720,6917.867,95.437,540.551,538.914,0.0
52468.0,STARLINK-3864,PAYLOAD,2024-07-12 03:35:41,15.08839095,0.0001277,53.2158,257.5,95.2286,264.8852,8.5082e-05,1.066e-05,0.0,0 STARLINK-3864,1 52468U 22049T   24194.14979154  .00001066  00000-0  85082-4 0  9992,2 52468  53.2158 257.5000 0001277  95.2286 264.8852 15.08839095120993,6917.883,95.438,540.632,538.865,0.0
52468.0,STARLINK-3864,PAYLOAD,2024-07-12 13:08:00,15.08840628,0.0001266,53.2153,255.7125,81.3899,278.7236,7.5398e-05,9.12e-06,0.0,0 STARLINK-3864,1 52468U 22049T   24194.54723261  .00000912  00000-0  75398-4 0  9990,2 52468  53.2153 255.7125 0001266  81.3899 278.7236 15.08840628120893,6917.878,95.438,540.619,538.868,0.0
52468.0,STARLINK-3864,PAYLOAD,2024-07-12 14:43:24,15.08840164,0.000128,53.2155,255.4157,83.4308,276.683,7.1581e-05,8.52e-06,0.0,0 STARLINK-3864,1 52468U 22049T   24194.61347302  .00000852  00000-0  71581-4 0  9999,2 52468  53.2155 255.4157 0001280  83.4308 276.6830 15.08840164120905,6917.88,95.438,540.63,538.859,0.0
52468.0,STARLINK-3864,PAYLOAD,2024-07-13 12:58:47,15.08846537,0.0001526,53.2166,251.2523,79.6693,280.4471,8.8477e-05,1.121e-05,0.0,0 STARLINK-3864,1 52468U 22049T   24195.54082937  .00001121  00000-0  88477-4 0  9994,2 52468  53.2166 251.2523 0001526  79.6693 280.4471 15.08846537121203,6917.86,95.437,540.781,538.67,0.0
52468.0,STARLINK-3864,PAYLOAD,2024-07-13 20:55:43,15.08837238,0.000148,53.2165,249.7643,86.7832,273.3329,4.8153e-05,4.78e-06,0.0,0 STARLINK-3864,1 52468U 22049T   24195.87203633  .00000478  00000-0  48153-4 0  9999,2 52468  53.2165 249.7643 0001480  86.7832 273.3329 15.08837238121256,6917.889,95.438,540.778,538.73,0.0
52468.0,STARLINK-3864,PAYLOAD,2024-07-14 12:49:34,15.08843315,0.000127,53.215,246.7895,85.0123,275.1014,6.6953e-05,7.78e-06,0.0,0 STARLINK-3864,1 52468U 22049T   24196.53443159  .00000778  00000-0  66953-4 0  9993,2 52468  53.2150 246.7895 0001270  85.0123 275.1014 15.08843315121195,6917.87,95.437,540.614,538.857,0.0
